BEIDOU-3S IGSO-1S       
1 40549U 15019A   26203.86188105 -.00000173  00000+0  00000+0 0  9998
2 40549  49.1249 295.0310 0038696 195.6676 212.2841  1.00291059 41434
NAVSTAR 74 (USA 262)    
1 40730U 15033A   26204.12011412 -.00000010  00000+0  00000+0 0  9992
2 40730  53.9555 265.6030 0115510  30.2978 330.4370  2.00554565 80710
BEIDOU-3S M2S           
1 40748U 15037A   26204.29902416 -.00000094  00000+0  00000+0 0  9998
2 40748  54.8364 300.8017 0009654 256.7100 103.2175  1.86232067 74790
BEIDOU-3S M1S           
1 40749U 15037B   26204.50200157 -.00000093  00000+0  00000+0 0  9995
2 40749  54.8328 300.7823 0002542  62.0343 298.0267  1.86255010 74801
GSAT0206 (GALILEO 10)   
1 40890U 15045B   26204.23883833  .00000075  00000+0  00000+0 0  9998
2 40890  54.9376 220.6082 0002043 330.5183  29.5186  1.70473658 67655
BEIDOU-3S IGSO-2S       
1 40938U 15053A   26204.13149049 -.00000085  00000+0  00000+0 0  9995
2 40938  49.1651 258.3502 0065896 193.8088 348.7982  1.00251983 39718
NAVSTAR 75 (USA 265)    
1 41019U 15062A   26204.17456617 -.00000075  00000+0  00000+0 0  9991
2 41019  56.9840  29.4262 0113192 230.8504 128.1758  2.00567136 78550
GSAT-15                 
1 41028U 15065A   26204.55956495 -.00000253  00000+0  00000+0 0  9993
2 41028   0.0970 262.9651 0003608 180.7182 152.5525  1.00271188 39160
GSAT0209 (GALILEO 12)   
1 41174U 15079A   26200.88772413 -.00000039  00000+0  00000+0 0  9990
2 41174  55.8457 100.3644 0004618 358.4074   1.6290  1.70473671 65332
GSAT0208 (GALILEO 11)   
1 41175U 15079B   26202.86782092 -.00000047  00000+0  00000+0 0  9994
2 41175  55.8455 100.3069 0004206   2.1198 357.9162  1.70473606 65787
IRNSS-1E                
1 41241U 16003A   26202.03020233 -.00000317  00000+0  00000+0 0  9997
2 41241  33.3051  59.2585 0019282 176.3074 185.9195  1.00275296 38420
NAVSTAR 76 (USA 266)    
1 41328U 16007A   26201.77276081 -.00000059  00000+0  00000+0 0  9994
2 41328  55.5446  88.1275 0096649 247.5642 111.4594  2.00575241 76514
COSMOS 2514 [GLONASS-M] 
1 41330U 16008A   26204.41821105 -.00000088  00000+0  00000+0 0  9997
2 41330  64.9975 311.7630 0012557 202.1470 157.8201  2.13102761 81398
BEIDOU-2 IGSO-6         
1 41434U 16021A   26177.11016981 -.00000145  00000+0  00000+0 0  9995
2 41434  60.2385  37.9495 0057558 231.0163 137.2672  1.00258926 37578
IRNSS-1G                
1 41469U 16027A   26204.54197624 -.00000335  00000+0  00000+0 0  9992
2 41469   5.2833  96.6329 0005779  13.8468 155.4780  1.00265450 37542
GSAT0211 (GALILEO 14)   
1 41549U 16030A   26201.23161694  .00000057  00000+0  00000+0 0  9996
2 41549  55.0891 220.7852 0003443 318.9851  41.0285  1.70473740 63235
GSAT0210 (GALILEO 13)   
1 41550U 16030B   26204.42178794  .00000076  00000+0  00000+0 0  9992
2 41550  55.0870 220.6957 0004720 247.6947 112.3044  1.70473980 63288
BEIDOU-2 G7             
1 41586U 16037A   26204.63422703 -.00000350  00000+0  00000+0 0  9999
2 41586   1.8083  69.5627 0006196   2.5879 208.0803  1.00269906  7252
EUTELSAT 117 WEST B     
1 41589U 16038B   26204.51785135 -.00000007  00000+0  00000+0 0  9990
2 41589   0.0064 119.4846 0000186  78.6023 172.5976  1.00273398 37025
GSAT0207 (GALILEO 15)   
1 41859U 16069A   26204.11386334 -.00000048  00000+0  00000+0 0  9993
2 41859  55.5193 100.0917 0004369 341.3874  18.6303  1.70473642 60019
GSAT0212 (GALILEO 16)   
1 41860U 16069B   26203.96725934 -.00000048  00000+0  00000+0 0  9990
2 41860  55.5169 100.0907 0004376  16.3980 343.6497  1.70473873 60266
GSAT0213 (GALILEO 17)   
1 41861U 16069C   26203.16122456 -.00000048  00000+0  00000+0 0  9993
2 41861  55.5184 100.1209 0003814 320.5981  39.4080  1.70474392 60116
GSAT0214 (GALILEO 18)   
1 41862U 16069D   26202.13435722 -.00000045  00000+0  00000+0 0  9990
2 41862  55.5164 100.1420 0003141 335.1519  24.8684  1.70473784 60226
SES-15                  
1 42709U 17026A   26204.40483988  .00000064  00000+0  00000+0 0  9994
2 42709   0.0290 317.3038 0001024 183.9617 176.4570  1.00273046  7798
QZS-2 (MICHIBIKI-2)     
1 42738U 17028A   26204.41483472 -.00000112  00000+0  00000+0 0  9992
2 42738  39.3751 242.6194 0756665 269.7024  80.6651  1.00274629  7988
QZS-3 (MICHIBIKI-3)     
1 42917U 17048A   26204.54211512 -.00000343  00000+0  00000+0 0  9997
2 42917   0.0590 201.1938 0002889 286.2354 136.0069  1.00268797 32628
COSMOS 2522 [GLONASS-M] 
1 42939U 17055A   26204.25583075  .00000090  00000+0  00000+0 0  9991
2 42939  64.0809 190.6566 0010862 240.6109 119.2865  2.13101933 68748
QZS-4 (MICHIBIKI-4)     
1 42965U 17062A   26202.25726799 -.00000358  00000+0  00000+0 0  9996
2 42965  40.0879 343.0509 0746939 268.6822 279.3148  1.00289434 32147
BEIDOU-3 M1             
1 43001U 17069A   26201.96127414 -.00000079  00000+0  00000+0 0  9991
2 43001  56.7221  61.9715 0008832 327.7311  32.2769  1.86231306 59235
BEIDOU-3 M2             
1 43002U 17069B   26203.51098727 -.00000077  00000+0  00000+0 0  9997
2 43002  56.7230  61.9567 0007814   0.0665 359.9968  1.86231039 59258
GSAT0215 (GALILEO 19)   
1 43055U 17079A   26202.62380459  .00000067  00000+0  00000+0 0  9991
2 43055  55.0665 220.5584 0003765 269.3113  90.6885  1.70474444 53579
